{"fetched_at":"2026-07-17T17:37:51.795Z","source":"https://celestrak.org/NORAD/elements/gp.php?GROUP=kuiper&FORMAT=JSON","constellation":"kuiper","records":[{"OBJECT_NAME":"KUIPER-00140","OBJECT_ID":"2025-228U","EPOCH":"2026-07-17T04:48:00.886464","CLASSIFICATION_TYPE":"U","MEAN_MOTION":14.799251,"ECCENTRICITY":0.00008453,"INCLINATION":51.8984,"RA_OF_ASC_NODE":132.967,"ARG_OF_PERICENTER":95.8035,"MEAN_ANOMALY":264.3024,"EPHEMERIS_TYPE":0,"NORAD_CAT_ID":65965,"ELEMENT_SET_NO":999,"REV_AT_EPOCH":4261,"BSTAR":0.00013894634,"MEAN_MOTION_DOT":0.00000838,"MEAN_MOTION_DDOT":0},{"OBJECT_NAME":"KUIPER-00141","OBJECT_ID":"2025-228V","EPOCH":"2026-07-17T04:55:47.912160","CLASSIFICATION_TYPE":"U","MEAN_MOTION":14.79932663,"ECCENTRICITY":0.0000905,"INCLINATION":51.9027,"RA_OF_ASC_NODE":128.0007,"ARG_OF_PERICENTER":85.173,"MEAN_ANOMALY":274.9336,"EPHEMERIS_TYPE":0,"NORAD_CAT_ID":65966,"ELEMENT_SET_NO":999,"REV_AT_EPOCH":4268,"BSTAR":0.00023475096,"MEAN_MOTION_DOT":0.00001569,"MEAN_MOTION_DDOT":0},{"OBJECT_NAME":"KUIPER-00146","OBJECT_ID":"2025-228W","EPOCH":"2026-07-17T05:40:30.046368","CLASSIFICATION_TYPE":"U","MEAN_MOTION":14.79924435,"ECCENTRICITY":0.0000856,"INCLINATION":51.9028,"RA_OF_ASC_NODE":130.3739,"ARG_OF_PERICENTER":90.5601,"MEAN_ANOMALY":269.5459,"EPHEMERIS_TYPE":0,"NORAD_CAT_ID":65967,"ELEMENT_SET_NO":999,"REV_AT_EPOCH":4265,"BSTAR":-0.00013103556,"MEAN_MOTION_DOT":-0.0000122,"MEAN_MOTION_DDOT":0},{"OBJECT_NAME":"KUIPER-00149","OBJECT_ID":"2025-228X","EPOCH":"2026-07-17T04:59:41.377056","CLASSIFICATION_TYPE":"U","MEAN_MOTION":14.79936496,"ECCENTRICITY":0.00009295,"INCLINATION":51.9011,"RA_OF_ASC_NODE":125.3841,"ARG_OF_PERICENTER":89.7195,"MEAN_ANOMALY":270.3874,"EPHEMERIS_TYPE":0,"NORAD_CAT_ID":65968,"ELEMENT_SET_NO":999,"REV_AT_EPOCH":4272,"BSTAR":0.00023059678,"MEAN_MOTION_DOT":0.00001537,"MEAN_MOTION_DDOT":0},{"OBJECT_NAME":"KUIPER-00154","OBJECT_ID":"2025-228Y","EPOCH":"2026-07-17T04:14:55.650336","CLASSIFICATION_TYPE":"U","MEAN_MOTION":14.79930235,"ECCENTRICITY":0.00010371,"INCLINATION":51.8982,"RA_OF_ASC_NODE":123.0121,"ARG_OF_PERICENTER":86.1262,"MEAN_ANOMALY":273.9819,"EPHEMERIS_TYPE":0,"NORAD_CAT_ID":65969,"ELEMENT_SET_NO":999,"REV_AT_EPOCH":4275,"BSTAR":0.000076352599,"MEAN_MOTION_DOT":0.00000361,"MEAN_MOTION_DDOT":0},{"OBJECT_NAME":"KUIPER-00157","OBJECT_ID":"2025-228Z","EPOCH":"2026-07-17T05:33:31.143744","CLASSIFICATION_TYPE":"U","MEAN_MOTION":14.81199419,"ECCENTRICITY":0.00011437,"INCLINATION":51.9022,"RA_OF_ASC_NODE":125.304,"ARG_OF_PERICENTER":55.6506,"MEAN_ANOMALY":304.4565,"EPHEMERIS_TYPE":0,"NORAD_CAT_ID":65970,"ELEMENT_SET_NO":999,"REV_AT_EPOCH":4272,"BSTAR":0.00020629134,"MEAN_MOTION_DOT":0.00001397,"MEAN_MOTION_DDOT":0},{"OBJECT_NAME":"KUIPER-00144","OBJECT_ID":"2025-301A","EPOCH":"2026-07-16T09:58:13.839744","CLASSIFICATION_TYPE":"U","MEAN_MOTION":14.79932159,"ECCENTRICITY":0.0000423,"INCLINATION":51.9003,"RA_OF_ASC_NODE":206.3948,"ARG_OF_PERICENTER":46.3633,"MEAN_ANOMALY":313.7365,"EPHEMERIS_TYPE":0,"NORAD_CAT_ID":67133,"ELEMENT_SET_NO":999,"REV_AT_EPOCH":3293,"BSTAR":-0.000022486,"MEAN_MOTION_DOT":-0.00000392,"MEAN_MOTION_DDOT":0},{"OBJECT_NAME":"KUIPER-00164","OBJECT_ID":"2025-301B","EPOCH":"2026-07-17T01:44:02.276448","CLASSIFICATION_TYPE":"U","MEAN_MOTION":14.76833691,"ECCENTRICITY":0.00011728,"INCLINATION":51.9025,"RA_OF_ASC_NODE":215.9449,"ARG_OF_PERICENTER":40.2878,"MEAN_ANOMALY":319.817,"EPHEMERIS_TYPE":0,"NORAD_CAT_ID":67134,"ELEMENT_SET_NO":999,"REV_AT_EPOCH":3303,"BSTAR":0.005737389,"MEAN_MOTION_DOT":0.0004068,"MEAN_MOTION_DDOT":0},{"OBJECT_NAME":"KUIPER-00175","OBJECT_ID":"2025-301C","EPOCH":"2026-07-17T06:21:25.605216","CLASSIFICATION_TYPE":"U","MEAN_MOTION":14.79941914,"ECCENTRICITY":0.00012201,"INCLINATION":51.8993,"RA_OF_ASC_NODE":197.5971,"ARG_OF_PERICENTER":71.7183,"MEAN_ANOMALY":288.3912,"EPHEMERIS_TYPE":0,"NORAD_CAT_ID":67135,"ELEMENT_SET_NO":999,"REV_AT_EPOCH":3320,"BSTAR":-0.00050411853,"MEAN_MOTION_DOT":-0.00004063,"MEAN_MOTION_DDOT":0},{"OBJECT_NAME":"KUIPER-00179","OBJECT_ID":"2025-301D","EPOCH":"2026-07-16T11:19:57.527040","CLASSIFICATION_TYPE":"U","MEAN_MOTION":14.79937118,"ECCENTRICITY":0.0000375,"INCLINATION":51.8973,"RA_OF_ASC_NODE":216.1133,"ARG_OF_PERICENTER":67.9768,"MEAN_ANOMALY":292.1234,"EPHEMERIS_TYPE":0,"NORAD_CAT_ID":67136,"ELEMENT_SET_NO":999,"REV_AT_EPOCH":3298,"BSTAR":0.00014927,"MEAN_MOTION_DOT":0.00000917,"MEAN_MOTION_DDOT":0},{"OBJECT_NAME":"KUIPER-00181","OBJECT_ID":"2025-301E","EPOCH":"2026-07-17T01:35:41.813088","CLASSIFICATION_TYPE":"U","MEAN_MOTION":14.79926709,"ECCENTRICITY":0.00009563,"INCLINATION":51.9018,"RA_OF_ASC_NODE":226.0238,"ARG_OF_PERICENTER":64.9664,"MEAN_ANOMALY":295.1398,"EPHEMERIS_TYPE":0,"NORAD_CAT_ID":67137,"ELEMENT_SET_NO":999,"REV_AT_EPOCH":3287,"BSTAR":0.00017734332,"MEAN_MOTION_DOT":0.00001131,"MEAN_MOTION_DDOT":0},{"OBJECT_NAME":"KUIPER-00183","OBJECT_ID":"2025-301F","EPOCH":"2026-07-17T06:18:11.023776","CLASSIFICATION_TYPE":"U","MEAN_MOTION":14.9276746,"ECCENTRICITY":0.00096293,"INCLINATION":51.8928,"RA_OF_ASC_NODE":197.2353,"ARG_OF_PERICENTER":129.9635,"MEAN_ANOMALY":230.218,"EPHEMERIS_TYPE":0,"NORAD_CAT_ID":67138,"ELEMENT_SET_NO":999,"REV_AT_EPOCH":3330,"BSTAR":0.00017522467,"MEAN_MOTION_DOT":0.0000158,"MEAN_MOTION_DDOT":0},{"OBJECT_NAME":"KUIPER-00184","OBJECT_ID":"2025-301G","EPOCH":"2026-07-17T01:14:14.625888","CLASSIFICATION_TYPE":"U","MEAN_MOTION":14.79938427,"ECCENTRICITY":0.00003481,"INCLINATION":51.8984,"RA_OF_ASC_NODE":208.5549,"ARG_OF_PERICENTER":68.6891,"MEAN_ANOMALY":291.4108,"EPHEMERIS_TYPE":0,"NORAD_CAT_ID":67139,"ELEMENT_SET_NO":999,"REV_AT_EPOCH":3323,"BSTAR":0.0001655085,"MEAN_MOTION_DOT":0.00001041,"MEAN_MOTION_DDOT":0},{"OBJECT_NAME":"KUIPER-00186","OBJECT_ID":"2025-301H","EPOCH":"2026-07-17T02:24:20.775744","CLASSIFICATION_TYPE":"U","MEAN_MOTION":14.79928161,"ECCENTRICITY":0.00004139,"INCLINATION":51.9018,"RA_OF_ASC_NODE":225.885,"ARG_OF_PERICENTER":81.0148,"MEAN_ANOMALY":279.0861,"EPHEMERIS_TYPE":0,"NORAD_CAT_ID":67140,"ELEMENT_SET_NO":999,"REV_AT_EPOCH":3272,"BSTAR":0.00016587045,"MEAN_MOTION_DOT":0.00001043,"MEAN_MOTION_DDOT":0},{"OBJECT_NAME":"KUIPER-00187","OBJECT_ID":"2025-301J","EPOCH":"2026-07-17T02:20:29.482080","CLASSIFICATION_TYPE":"U","MEAN_MOTION":14.79937961,"ECCENTRICITY":0.00004041,"INCLINATION":51.9028,"RA_OF_ASC_NODE":228.4208,"ARG_OF_PERICENTER":92.3873,"MEAN_ANOMALY":267.7136,"EPHEMERIS_TYPE":0,"NORAD_CAT_ID":67141,"ELEMENT_SET_NO":999,"REV_AT_EPOCH":3268,"BSTAR":0.00017721784,"MEAN_MOTION_DOT":0.0000113,"MEAN_MOTION_DDOT":0},{"OBJECT_NAME":"KUIPER-00188","OBJECT_ID":"2025-301K","EPOCH":"2026-07-17T07:14:04.517088","CLASSIFICATION_TYPE":"U","MEAN_MOTION":14.79926096,"ECCENTRICITY":0.00004987,"INCLINATION":51.9018,"RA_OF_ASC_NODE":195.1056,"ARG_OF_PERICENTER":69.1283,"MEAN_ANOMALY":290.9732,"EPHEMERIS_TYPE":0,"NORAD_CAT_ID":67142,"ELEMENT_SET_NO":999,"REV_AT_EPOCH":3316,"BSTAR":0.00016510275,"MEAN_MOTION_DOT":0.00001038,"MEAN_MOTION_DDOT":0}]}
