KUIPER-00140            
1 65965U 25228U   26198.20001026  .00000838  00000+0  13895-3 0  9994
2 65965  51.8984 132.9670 0000845  95.8035 264.3024 14.79925100 42615
KUIPER-00141            
1 65966U 25228V   26198.20541565  .00001569  00000+0  23475-3 0  9999
2 65966  51.9027 128.0007 0000905  85.1730 274.9336 14.79932663 42688
KUIPER-00146            
1 65967U 25228W   26198.23645887 -.00001220  00000+0 -13104-3 0  9999
2 65967  51.9028 130.3739 0000856  90.5601 269.5459 14.79924435 42651
KUIPER-00149            
1 65968U 25228X   26198.20811779  .00001537  00000+0  23060-3 0  9993
2 65968  51.9011 125.3841 0000929  89.7195 270.3874 14.79936496 42720
KUIPER-00154            
1 65969U 25228Y   26198.17703299  .00000361  00000+0  76353-4 0  9995
2 65969  51.8982 123.0121 0001037  86.1262 273.9819 14.79930235 42756
KUIPER-00157            
1 65970U 25228Z   26198.23161046  .00001397  00000+0  20629-3 0  9996
2 65970  51.9022 125.3040 0001143  55.6506 304.4565 14.81199419 42728
KUIPER-00144            
1 67133U 25301A   26197.41543796 -.00000392  00000+0 -22486-4 0  9996
2 67133  51.9003 206.3948 0000423  46.3633 313.7365 14.79932159 32931
KUIPER-00164            
1 67134U 25301B   26198.07224857  .00040680  00000+0  57374-2 0  9998
2 67134  51.9025 215.9449 0001172  40.2878 319.8170 14.76833691 33035
KUIPER-00175            
1 67135U 25301C   26198.26487969 -.00004063  00000+0 -50412-3 0  9999
2 67135  51.8993 197.5971 0001220  71.7183 288.3912 14.79941914 33200
KUIPER-00179            
1 67136U 25301D   26197.47219360  .00000917  00000+0  14927-3 0  9993
2 67136  51.8973 216.1133 0000375  67.9768 292.1234 14.79937118 32988
KUIPER-00181            
1 67137U 25301E   26198.06645617  .00001131  00000+0  17734-3 0  9996
2 67137  51.9018 226.0238 0000956  64.9664 295.1398 14.79926709 32879
KUIPER-00183            
1 67138U 25301F   26198.26262759  .00001580  00000+0  17522-3 0  9994
2 67138  51.8928 197.2353 0009629 129.9635 230.2180 14.92767460 33302
KUIPER-00184            
1 67139U 25301G   26198.05155817  .00001041  00000+0  16551-3 0  9991
2 67139  51.8984 208.5549 0000348  68.6891 291.4108 14.79938427 33239
KUIPER-00186            
1 67140U 25301H   26198.10024046  .00001043  00000+0  16587-3 0  9999
2 67140  51.9018 225.8850 0000413  81.0148 279.0861 14.79928161 32729
KUIPER-00187            
1 67141U 25301J   26198.09756345  .00001130  00000+0  17722-3 0  9991
2 67141  51.9028 228.4208 0000404  92.3873 267.7136 14.79937961 32689
KUIPER-00188            
1 67142U 25301K   26198.30144117  .00001038  00000+0  16510-3 0  9995
2 67142  51.9018 195.1056 0000498  69.1283 290.9732 14.79926096 33161
